CCSDS_OMM_VERS,COMMENT,CREATION_DATE,ORIGINATOR,OBJECT_NAME,OBJECT_ID,CENTER_NAME,REF_FRAME,TIME_SYSTEM,MEAN_ELEMENT_THEORY,EPOCH,MEAN_MOTION,ECCENTRICITY,INCLINATION,RA_OF_ASC_NODE,ARG_OF_PERICENTER,MEAN_ANOMALY,EPHEMERIS_TYPE,CLASSIFICATION_TYPE,NORAD_CAT_ID,ELEMENT_SET_NO,REV_AT_EPOCH,BSTAR,MEAN_MOTION_DOT,MEAN_MOTION_DDOT,SEMIMAJOR_AXIS,PERIOD,APOAPSIS,PERIAPSIS,OBJECT_TYPE,RCS_SIZE,COUNTRY_CODE,LAUNCH_DATE,SITE,DECAY_DATE,FILE,GP_ID,TLE_LINE0,TLE_LINE1,TLE_LINE2,NORAD_KEY,JCAT,DeepCat,Satcat,Piece,Active,Type,Name,LDate,Parent,Owner,State,SDate,ExpandedStatus,DDate,ODate,Period,Perigee,PF,Apogee,AF,Inc,IF,OpOrbit,SATCAT_KEY
3.0,GENERATED VIA SPACE-TRACK.ORG API,2026-05-06T14:56:52,18 SPCS,LEASAT 5,1990-002B,EARTH,TEME,UTC,SGP4,2026-05-06T11:14:43.499328,0.9959831,0.0004511,11.1026,353.0088,48.6564,312.6634,0,U,20410,999,11801,0.00000000000000,-0.00000285,0.0000000000000,42354.595,1445.808,35995.566,35957.353,PAYLOAD,LARGE,US,1990-01-09,AFETR,,5177412,322303018,0 LEASAT 5,1 20410U 90002B   26126.46855902 -.00000285  00000-0  00000+0 0  9999,2 20410  11.1026 353.0088 0004511  48.6564 312.6634  0.99598310118011,20410,S20410,-,20410,1990-002B,P,P ---S-,Leasat 5,1990 Jan  9,A04775,IGC,US,1990 Jan 10 1318,In Earth orbit,-,2026 May  3 ,    1445.794 ,   35957, ,   35995, , 11.10 , ,GEO/ID,20410
3.0,GENERATED VIA SPACE-TRACK.ORG API,2026-05-06T10:08:52,18 SPCS,ABS 3 (AGILA 2),1997-042A,EARTH,TEME,UTC,SGP4,2026-05-06T04:20:42.350208,0.99261891,0.00020519,11.114,43.135,322.2782,233.9203,0,U,24901,999,10481,0.00000000000000,-0.00000233,0.0000000000000,42450.239,1450.708,36080.815,36063.394,PAYLOAD,LARGE,PRC,1997-08-19,XSC,,5176958,322265241,0 ABS 3 (AGILA 2),1 24901U 97042A   26126.18104572 -.00000233  00000-0  00000-0 0  9992,2 24901  11.1140  43.1350 0002052 322.2782 233.9203  0.99261891104818,24901,S24901,-,24901,1997-042A,P,P,ABS-3,1997 Aug 19,S24902,ABSHK,HK,1997 Aug 19 1816?,In Earth orbit,-,2026 May  5 ,    1450.703 ,   36063, ,   36080, , 11.11 , ,GEO/ID,24901
3.0,GENERATED VIA SPACE-TRACK.ORG API,2026-05-06T10:08:52,18 SPCS,YURI 2A (BS-2A),1984-005A,EARTH,TEME,UTC,SGP4,2026-05-06T03:06:40.279104,0.99049131,0.00126115,11.1195,324.9319,219.9799,135.8837,0,U,14659,999,11789,0.00000000000000,0.00000056,0.0000000000000,42511.007,1453.824,36186.485,36079.259,PAYLOAD,LARGE,JPN,1984-01-23,TNSTA,,5176958,322262322,0 YURI 2A (BS-2A),1 14659U 84005A   26126.12963286  .00000056  00000-0  00000-0 0  9997,2 14659  11.1195 324.9319 0012612 219.9799 135.8837  0.99049131117891,14659,S14659,-,14659,1984-005A,P,P,Yuri 2A,1984 Jan 23,S14665,JAXA,J,1984 Jan 23 0825,In Earth orbit,-,2026 May  5 ,    1453.829 ,   36079, ,   36186, , 11.12 , ,GEO/ID,14659
3.0,GENERATED VIA SPACE-TRACK.ORG API,2026-05-06T10:08:52,18 SPCS,YURI 2A (BS-2A),1984-005A,EARTH,TEME,UTC,SGP4,2026-05-06T03:06:40.279104,0.99049131,0.00126115,11.1195,324.9319,219.9799,135.8837,0,U,14659,999,11789,0.00000000000000,0.00000056,0.0000000000000,42511.007,1453.824,36186.485,36079.259,PAYLOAD,LARGE,JPN,1984-01-23,TNSTA,,5176958,322262322,0 YURI 2A (BS-2A),1 14659U 84005A   26126.12963286  .00000056  00000-0  00000-0 0  9997,2 14659  11.1195 324.9319 0012612 219.9799 135.8837  0.99049131117891,14659,A03759,-,14659,1984-005,C,C AM,Star 27 S/N 0055,1984 Jan 23,S14659,JAXA,J,1984 Jan 26 0514,Attached to S14659 Yuri 2A,-,-,-,-,-,-,-,-,-,-,14659
3.0,GENERATED VIA SPACE-TRACK.ORG API,2026-05-06T14:56:52,18 SPCS,SAKURA 2B (CS-2B),1983-081A,EARTH,TEME,UTC,SGP4,2026-05-06T11:10:13.928736,0.9881287,0.0004428,11.1549,324.7586,46.4129,326.6715,0,U,14248,999,12327,0.00000000000000,-0.00000182,0.0000000000000,42578.743,1457.3,36219.461,36181.754,PAYLOAD,LARGE,JPN,1983-08-05,TNSTA,,5177366,322301948,0 SAKURA 2B (CS-2B),1 14248U 83081A   26126.46543899 -.00000182  00000-0  00000+0 0  9995,2 14248  11.1549 324.7586 0004428  46.4129 326.6715  0.98812870123279,14248,S14248,-,14248,1983-081A,P,P,Sakura 2B,1983 Aug  5,S14287,JAXA,J,1983 Aug  5 2100,In Earth orbit,-,2026 May  4 ,    1457.291 ,   36181, ,   36219, , 11.16 , ,GEO/ID,14248
3.0,GENERATED VIA SPACE-TRACK.ORG API,2026-05-06T14:56:52,18 SPCS,SAKURA 2B (CS-2B),1983-081A,EARTH,TEME,UTC,SGP4,2026-05-06T11:10:13.928736,0.9881287,0.0004428,11.1549,324.7586,46.4129,326.6715,0,U,14248,999,12327,0.00000000000000,-0.00000182,0.0000000000000,42578.743,1457.3,36219.461,36181.754,PAYLOAD,LARGE,JPN,1983-08-05,TNSTA,,5177366,322301948,0 SAKURA 2B (CS-2B),1 14248U 83081A   26126.46543899 -.00000182  00000-0  00000+0 0  9995,2 14248  11.1549 324.7586 0004428  46.4129 326.6715  0.98812870123279,14248,A03682,-,14248,1983-081,C,C AM,Star 27B S/N 0045,1983 Aug  5,S14248,JAXA,J,1983 Aug  7 1120?,Attached to S14248 Sakura 2B,-,-,-,-,-,-,-,-,-,-,14248
3.0,GENERATED VIA SPACE-TRACK.ORG API,2026-05-06T14:56:52,18 SPCS,GSTAR 3,1988-081A,EARTH,TEME,UTC,SGP4,2026-05-06T12:38:12.084864,1.00272303,0.0005055,11.1609,318.6702,203.4607,146.4907,0,U,19483,999,13417,0.00000000000000,-0.00000103,0.0000000000000,42164.587,1436.089,35807.766,35765.138,PAYLOAD,LARGE,US,1988-09-08,FRGUI,,5177395,322302311,0 GSTAR 3,1 19483U 88081A   26126.52652876 -.00000103  00000-0  00000+0 0  9992,2 19483  11.1609 318.6702 0005055 203.4607 146.4907  1.00272303134174,19483,S19483,-,19483,1988-081A,P,P,Gstar 3,1988 Sep  8,S19487,SESSAP,US,1988 Sep  8 2318,In Earth orbit,-,2026 May  5 ,    1436.089 ,   35765, ,   35807, , 11.16 , ,GEO/I,19483
3.0,GENERATED VIA SPACE-TRACK.ORG API,2026-05-06T14:56:52,18 SPCS,GSTAR 3,1988-081A,EARTH,TEME,UTC,SGP4,2026-05-06T12:38:12.084864,1.00272303,0.0005055,11.1609,318.6702,203.4607,146.4907,0,U,19483,999,13417,0.00000000000000,-0.00000103,0.0000000000000,42164.587,1436.089,35807.766,35765.138,PAYLOAD,LARGE,US,1988-09-08,FRGUI,,5177395,322302311,0 GSTAR 3,1 19483U 88081A   26126.52652876 -.00000103  00000-0  00000+0 0  9992,2 19483  11.1609 318.6702 0005055 203.4607 146.4907  1.00272303134174,19483,A04578,-,19483,1988-081,C,C AM---*,Star 30BP S/N 057A,1988 Sep  8,S19483,SESSAP,US,1988 Sep 11 2019,Attached to S19483 Gstar 3,-,-,-,-,-,-,-,-,-,-,19483
3.0,GENERATED VIA SPACE-TRACK.ORG API,2026-05-06T15:06:46,18 SPCS,DRTS,2002-042B,EARTH,TEME,UTC,SGP4,2026-05-06T11:38:49.569216,0.99270932,0.0017541,11.1734,42.2367,236.016,229.4667,0,U,27516,999,4517,0.00000000000000,-0.00000178,0.0000000000000,42447.662,1450.576,36143.985,35995.07,PAYLOAD,LARGE,JPN,2002-09-10,TNSTA,,5177725,322311307,0 DRTS,1 27516U 02042B   26126.48529594 -.00000178  00000-0  00000+0 0  9998,2 27516  11.1734  42.2367 0017541 236.0160 229.4667  0.99270932 45174,27516,S27516,-,27516,2002-042B,P,P,Kodama,2002 Sep 10,S27517,JAXA,J,2002 Sep 10 0849,In Earth orbit,-,2026 May  4 ,    1450.563 ,   35994, ,   36143, , 11.17 , ,GEO/ID,27516
3.0,GENERATED VIA SPACE-TRACK.ORG API,2026-05-06T14:56:52,18 SPCS,AMOS 5I (ASIASAT 2),1995-064A,EARTH,TEME,UTC,SGP4,2026-05-06T13:34:24.642336,0.99309983,0.0009609,11.2154,42.0082,330.1344,213.8971,0,U,23723,999,11091,0.00000000000000,-0.00000267,0.0000000000000,42436.534,1450.005,36099.176,36017.621,PAYLOAD,LARGE,ISRA,1995-11-28,XSC,,5177517,322305329,0 AMOS 5I (ASIASAT 2),1 23723U 95064A   26126.56556299 -.00000267  00000-0  00000+0 0  9990,2 23723  11.2154  42.0082 0009609 330.1344 213.8971  0.99309983110914,23723,S23723,-,23723,1995-064A,P,P,Amos 5i,1995 Nov 28,S23725,IAIS,IL,1995 Nov 28 1326?,In Earth orbit,-,2026 May  4 ,    1450.005 ,   36017, ,   36099, , 11.21 , ,GEO/ID,23723
3.0,GENERATED VIA SPACE-TRACK.ORG API,2026-05-06T14:46:56,18 SPCS,RADUGA 19,1986-082A,EARTH,TEME,UTC,SGP4,2026-05-06T06:20:57.235776,0.9846192,0.0009546,11.2201,325.6586,191.4297,173.7517,0,U,17046,999,14250,0.00000000000000,-0.00000156,0.0000000000000,42679.859,1462.494,36342.466,36260.982,PAYLOAD,LARGE,CIS,1986-10-25,TTMTR,,5177295,322301488,0 RADUGA 19,1 17046U 86082A   26126.26455134 -.00000156  00000-0  00000+0 0  9991,2 17046  11.2201 325.6586 0009546 191.4297 173.7517  0.98461920142501,17046,S17046,-,17046,1986-082A,P,P,Raduga,1986 Oct 25,S17065,VVKOV,SU,1986 Oct 25 2220?,In Earth orbit,-,2026 May  5 ,    1462.499 ,   36261, ,   36342, , 11.22 , ,GEO/ID,17046
3.0,GENERATED VIA SPACE-TRACK.ORG API,2026-05-06T10:08:52,18 SPCS,INSAT 1B,1983-089B,EARTH,TEME,UTC,SGP4,2026-05-06T01:32:04.353792,1.00163512,0.00082128,11.2249,327.3096,245.2942,112.6967,0,U,14318,999,12478,0.00000000000000,-0.00000111,0.0000000000000,42195.112,1437.649,35851.631,35782.323,PAYLOAD,LARGE,IND,1983-08-30,AFETR,,5176958,322262770,0 INSAT 1B,1 14318U 83089B   26126.06393928 -.00000111  00000-0  00000-0 0  9996,2 14318  11.2249 327.3096 0008213 245.2942 112.6967  1.00163512124783,14318,S14318,-,14318,1983-089B,P,P ---S-,Insat 1B,1983 Aug 30,S14524,ISRO,IN,1983 Aug 30 0914?,In Earth orbit,-,2026 May  5 ,    1437.648 ,   35782, ,   35851, , 11.23 , ,GEO/ID,14318
3.0,GENERATED VIA SPACE-TRACK.ORG API,2026-05-06T14:56:52,18 SPCS,EUROBIRD 4A(EUTELSAT W1),2000-052A,EARTH,TEME,UTC,SGP4,2026-05-06T11:53:00.508992,0.98181209,0.0011819,11.2523,46.4253,297.8423,189.8848,0,U,26487,999,9277,0.00000000000000,-0.00000161,0.0000000000000,42761.171,1466.676,36433.576,36332.497,PAYLOAD,LARGE,EUTE,2000-09-06,FRGUI,,5177592,322307328,0 EUROBIRD 4A(EUTELSAT W1),1 26487U 00052A   26126.49514478 -.00000161  00000-0  00000+0 0  9991,2 26487  11.2523  46.4253 0011819 297.8423 189.8848  0.98181209 92771,26487,S26487,-,26487,2000-052A,P,P,EUTELSAT 4A,2000 Sep  6,S26488,EUTSA,F,2000 Sep  6 2253,In Earth orbit,-,2026 May  4 ,    1466.666 ,   36331, ,   36433, , 11.25 , ,GEO/ID,26487
